STARLINK-2420
1 27831C 21018AW  21325.14357956  .00003281  00000-0  21991-3 0  3250
2 27831  53.0540  82.5070 0000939  84.4554 140.9781 15.06387470    17
